H1 CPF  1  HTS 2022 12  3 12  8371 larets           NONE
H2  0304206 5557    27944 2022 12 03  0  0  0 2022 12 08  0  0  0   180 1 1  0 0 0
H5  0.0560 
H9 
10 0 59919  33480.00000  0    2107668.507    6514999.631   -1742680.672
10 0 59919  33660.00000  0    2236911.593    5996984.456   -2999427.442
10 0 59919  33840.00000  0    2268491.552    5259209.345   -4146544.140
10 0 59919  34020.00000  0    2196056.539    4331496.700   -5142411.738
10 0 59919  34200.00000  0    2017890.048    3250524.109   -5951087.563
10 0 59919  34380.00000  0    1737096.759    2058316.273   -6543536.492
10 0 59919  34560.00000  0    1361580.645     800584.052   -6898589.336
10 0 59919  34740.00000  0     903823.601    -475017.608   -7003617.598
10 0 59919  34920.00000  0     380470.177   -1720657.594   -6854923.792
10 0 59919  35100.00000  0    -188265.142   -2890067.010   -6457845.822
10 0 59919  35280.00000  0    -779351.932   -3940206.755   -5826588.318
10 0 59919  35460.00000  0   -1367841.614   -4832826.174   -4983770.658
10 0 59919  35640.00000  0   -1927882.003   -5535863.308   -3959695.884
10 0 59919  35820.00000  0   -2433818.938   -6024639.140   -2791341.081
10 0 59919  36000.00000  0   -2861339.827   -6282789.618   -1521085.524
10 0 59919  36180.00000  0   -3188608.708   -6302889.668    -195207.101
10 0 59919  36360.00000  0   -3397335.193   -6086723.698    1137809.259
10 0 59919  36540.00000  0   -3473716.556   -5645174.078    2429080.217
10 0 59919  36720.00000  0   -3409200.125   -4997726.202    3631168.304
10 0 59919  36900.00000  0   -3201022.406   -4171613.695    4699874.832
10 0 59919  37080.00000  0   -2852497.336   -3200648.742    5595902.287
10 0 59919  37260.00000  0   -2373039.011   -2123797.959    6286315.056
10 0 59919  37440.00000  0   -1777917.722    -983580.660    6745746.784
10 0 59919  37620.00000  0   -1087761.045     175643.747    6957319.693
10 0 59919  37800.00000  0    -327824.245    1309424.969    6913241.929
10 0 59919  37980.00000  0     472942.473    2374940.428    6615088.189
10 0 59919  38160.00000  0    1283006.351    3332631.120    6073750.538
10 0 59919  38340.00000  0    2069501.857    4147693.808    5309059.561
10 0 59919  38520.00000  0    2799574.887    4791383.015    4349083.458
10 0 59919  38700.00000  0    3441771.631    5242068.366    3229113.657
10 0 59919  38880.00000  0    3967410.791    5486004.266    1990369.616
10 0 59919  39060.00000  0    4351877.565    5517772.483     678450.527
10 0 59919  39240.00000  0    4575760.199    5340365.388    -658395.152
10 0 59919  39420.00000  0    4625775.466    4964906.394   -1971107.090
10 0 59919  39600.00000  0    4495435.012    4410025.966   -3211665.847
10 0 59919  39780.00000  0    4185419.579    3700936.045   -4334882.286
10 0 59919  39960.00000  0    3703646.685    2868255.158   -5300042.023
10 0 59919  40140.00000  0    3065042.523    1946654.299   -6072342.240
10 0 59919  40320.00000  0    2291035.606     973393.685   -6624077.943
10 0 59919  40500.00000  0    1408803.741     -13180.797   -6935548.770
10 0 59919  40680.00000  0     450312.997    -975120.773   -6995683.659
10 0 59919  40860.00000  0    -548825.372   -1876295.360   -6802381.663
10 0 59919  41040.00000  0   -1550641.194   -2683703.229   -6362568.976
10 0 59919  41220.00000  0   -2516204.482   -3368649.997   -5691978.664
10 0 59919  41400.00000  0   -3407098.585   -3907757.774   -4814650.195
10 0 59919  41580.00000  0   -4186930.935   -4283779.913   -3762150.439
10 0 59919  41760.00000  0   -4822824.453   -4486184.973   -2572515.011
10 0 59919  41940.00000  0   -5286826.792   -4511481.013   -1288931.712
10 0 59919  42120.00000  0   -5557169.197   -4363256.853      41801.412
10 0 59919  42300.00000  0   -5619307.078   -4051930.497    1370990.746
10 0 59919  42480.00000  0   -5466678.659   -3594207.377    2649869.723
10 0 59919  42660.00000  0   -5101130.700   -3012267.301    3831442.242
10 0 59919  42840.00000  0   -4532988.637   -2332725.738    4872259.674
10 0 59919  43020.00000  0   -3780765.156   -1585422.320    5734052.113
10 0 59919  43200.00000  0   -2870530.226    -802105.113    6385144.738
10 0 59919  43380.00000  0   -1834971.354     -15070.093    6801620.002
10 0 59919  43560.00000  0    -712180.151     744182.949    6968177.340
10 0 59919  43740.00000  0     455773.379    1446216.253    6878675.881
10 0 59919  43920.00000  0    1624431.927    2064805.066    6536356.393
10 0 59919  44100.00000  0    2748657.379    2577930.690    5953732.065
10 0 59919  44280.00000  0    3784393.996    2968580.158    5152153.798
10 0 59919  44460.00000  0    4690428.385    3225328.293    4161052.332
10 0 59919  44640.00000  0    5430072.826    3342678.116    3016874.337
10 0 59919  44820.00000  0    5972706.797    3321142.112    1761734.895
10 0 59919  45000.00000  0    6295085.381    3167056.392     441833.546
10 0 59919  45180.00000  0    6382353.546    2892139.132    -894301.098
10 0 59919  45360.00000  0    6228704.907    2512809.889   -2197658.507
10 0 59919  45540.00000  0    5837656.996    2049316.497   -3420592.846
10 0 59919  45720.00000  0    5221938.238    1524717.335   -4518592.942
10 0 59919  45900.00000  0    4402996.332     963770.669   -5451896.423
10 0 59919  46080.00000  0    3410166.814     391796.731   -6186881.474
10 0 59919  46260.00000  0    2279558.645    -166431.547   -6697203.289
10 0 59919  46440.00000  0    1052708.501    -687724.936   -6964652.778
10 0 59919  46620.00000  0    -224939.149   -1151405.309   -6979732.299
10 0 59919  46800.00000  0   -1505681.487   -1540093.724   -6741945.206
10 0 59919  46980.00000  0   -2741286.216   -1840339.464   -6259804.690
10 0 59919  47160.00000  0   -3884756.012   -2043074.871   -5550560.882
10 0 59919  47340.00000  0   -4892083.239   -2143885.493   -4639653.202
10 0 59919  47520.00000  0   -5723947.722   -2143086.223   -3559880.737
10 0 59919  47700.00000  0   -6347288.874   -2045595.939   -2350297.549
10 0 59919  47880.00000  0   -6736683.056   -1860610.621   -1054852.309
10 0 59919  48060.00000  0   -6875453.500   -1601084.065     279189.498
10 0 59919  48240.00000  0   -6756447.505   -1283036.033    1602986.175
10 0 59919  48420.00000  0   -6382427.363    -924719.688    2867950.991
10 0 59919  48600.00000  0   -5766046.311    -545692.219    4027589.465
10 0 59919  48780.00000  0   -4929406.059    -165835.606    5039258.721
10 0 59919  48960.00000  0   -3903219.364     195617.993    5865763.595
10 0 59919  49140.00000  0   -2725631.794     521008.274    6476731.226
10 0 59919  49320.00000  0   -1440751.699     795070.284    6849719.313
10 0 59919  49500.00000  0     -96955.701    1005623.921    6971022.716
10 0 59919  49680.00000  0    1254959.004    1144103.389    6836158.876
10 0 59919  49860.00000  0    2563710.494    1205906.649    6450030.012
10 0 59919  50040.00000  0    3779495.789    1190552.369    5826758.143
10 0 59919  50220.00000  0    4855917.425    1101637.883    4989191.414
10 0 59919  50400.00000  0    5751798.938     946600.420    3968091.468
10 0 59919  50580.00000  0    6432825.091     736291.558    2801017.167
10 0 59919  50760.00000  0    6872920.205     484382.459    1530928.041
10 0 59919  50940.00000  0    7055298.485     206627.221     204567.685
10 0 59919  51120.00000  0    6973130.085     -79976.603   -1129312.570
10 0 59919  51300.00000  0    6629784.173    -358086.656   -2421808.523
10 0 59919  51480.00000  0    6038638.584    -610924.135   -3625705.384
10 0 59919  51660.00000  0    5222478.285    -823143.680   -4697223.469
10 0 59919  51840.00000  0    4212524.553    -981617.537   -5597594.163
10 0 59919  52020.00000  0    3047159.947   -1076099.123   -6294409.944
10 0 59919  52200.00000  0    1770415.243   -1099741.556   -6762714.239
10 0 59919  52380.00000  0     430289.397   -1049448.483   -6985809.814
10 0 59919  52560.00000  0    -923033.717    -926051.866   -6955783.120
10 0 59919  52740.00000  0   -2239017.410    -734310.935   -6673744.981
10 0 59919  52920.00000  0   -3468603.940    -482733.073   -6149787.907
10 0 59919  53100.00000  0   -4565994.360    -183222.201   -5402664.049
10 0 59919  53280.00000  0   -5490337.625     149435.616   -4459187.000
10 0 59919  53460.00000  0   -6207272.626     498234.194   -3353353.436
10 0 59919  53640.00000  0   -6690265.624     844737.176   -2125193.348
10 0 59919  53820.00000  0   -6921674.660    1169964.600    -819368.602
10 0 59919  54000.00000  0   -6893482.118    1455334.648     516441.054
10 0 59919  54180.00000  0   -6607637.831    1683612.142    1833303.759
10 0 59919  54360.00000  0   -6075992.750    1839816.476    3082871.104
10 0 59919  54540.00000  0   -5319817.240    1912037.845    4219208.561
10 0 59919  54720.00000  0   -4368922.182    1892114.599    5200529.964
10 0 59919  54900.00000  0   -3260437.631    1776138.619    5990757.337
10 0 59919  55080.00000  0   -2037314.071    1564765.842    6560853.712
10 0 59919  55260.00000  0    -746607.896    1263316.146    6889881.281
10 0 59919  55440.00000  0     562365.781     881657.030    6965747.004
10 0 59919  55620.00000  0    1839935.870     433878.201    6785630.852
10 0 59919  55800.00000  0    3037974.413     -62231.996    6356091.483
10 0 59919  55980.00000  0    4111731.466    -585893.138    5692845.373
10 0 59919  56160.00000  0    5021543.005   -1114199.205    4820215.886
10 0 59919  56340.00000  0    5734345.675   -1623112.730    3770263.431
10 0 59919  56520.00000  0    6224938.024   -2088545.329    2581615.168
10 0 59919  56700.00000  0    6476926.503   -2487476.498    1298027.197
10 0 59919  56880.00000  0    6483306.044   -2799053.410     -33266.011
10 0 59919  57060.00000  0    6246643.850   -3005614.494   -1363348.217
10 0 59919  57240.00000  0    5778853.557   -3093580.437   -2643481.496
10 0 59919  57420.00000  0    5100575.511   -3054165.190   -3826937.335
10 0 59919  57600.00000  0    4240211.137   -2883874.956   -4870716.175
10 0 59919  57780.00000  0    3232668.058   -2584777.027   -5737088.388
99
